COMMENT,ORIGINATOR,NORAD_CAT_ID,OBJECT_NAME,OBJECT_TYPE,CLASSIFICATION_TYPE,INTLDES,EPOCH,EPOCH_MICROSECONDS,MEAN_MOTION,ECCENTRICITY,INCLINATION,RA_OF_ASC_NODE,ARG_OF_PERICENTER,MEAN_ANOMALY,EPHEMERIS_TYPE,ELEMENT_SET_NO,REV_AT_EPOCH,BSTAR,MEAN_MOTION_DOT,MEAN_MOTION_DDOT,FILE,TLE_LINE0,TLE_LINE1,TLE_LINE2,OBJECT_ID,OBJECT_NUMBER,SEMIMAJOR_AXIS,PERIOD,APOGEE,PERIGEE,DECAYED
GENERATED VIA SPACETRACK.ORG API,18 SPCS,26998,TIMED,PAYLOAD,U,01055B,10/25/24 13:02,329952,14.92447183,0.0002409,74.0728,0.1717,320.8183,39.2826,0,999,24140,0.00038674,0.00003929,0,4533730,0 TIMED,1 26998U 01055B   24299.54361493  .00003929  00000-0  38674-3 0  9990,2 26998  74.0728   0.1717 0002409 320.8183  39.2826 14.92447183241404,2001-055B,26998,6968.445,96.486,591.988,588.631,0
GENERATED VIA SPACETRACK.ORG API,18 SPCS,26998,TIMED,PAYLOAD,U,01055B,10/25/24 21:05,323296,14.92450326,0.0002427,74.0728,359.4999,320.3396,39.7609,0,999,24131,0.00039507,0.00004015,0,4534355,0 TIMED,1 26998U 01055B   24299.87877689  .00004015  00000-0  39507-3 0  9998,2 26998  74.0728 359.4999 0002427 320.3396  39.7609 14.92450326241314,2001-055B,26998,6968.435,96.486,591.991,588.609,0
GENERATED VIA SPACETRACK.ORG API,18 SPCS,26998,TIMED,PAYLOAD,U,01055B,10/26/24 13:10,165696,14.92455324,0.0002435,74.0729,358.1566,318.9026,41.1974,0,999,24141,0.00037427,0.00003802,0,4534902,0 TIMED,1 26998U 01055B   24300.54909914  .00003802  00000-0  37427-3 0  9994,2 26998  74.0729 358.1566 0002435 318.9026  41.1974 14.92455324241419,2001-055B,26998,6968.419,96.485,591.981,588.588,0
GENERATED VIA SPACETRACK.ORG API,18 SPCS,26998,TIMED,PAYLOAD,U,01055B,10/26/24 14:47,744320,14.9245573,0.0002434,74.0729,358.0222,318.8137,41.2862,0,999,24156,0.00036969,0.00003755,0,4535074,0 TIMED,1 26998U 01055B   24300.61613130  .00003755  00000-0  36969-3 0  9991,2 26998  74.0729 358.0222 0002434 318.8137  41.2862 14.92455730241562,2001-055B,26998,6968.418,96.485,591.979,588.587,0
GENERATED VIA SPACETRACK.ORG API,18 SPCS,26998,TIMED,PAYLOAD,U,01055B,10/26/24 21:13,970688,14.92459901,0.0002447,74.0729,357.4848,318.4501,41.6496,0,999,24146,0.00044087,0.00004487,0,4535278,0 TIMED,1 26998U 01055B   24300.88425892  .00004487  00000-0  44087-3 0  9999,2 26998  74.0729 357.4848 0002447 318.4501  41.6496 14.92459901241464,2001-055B,26998,6968.405,96.485,591.975,588.565,0
GENERATED VIA SPACETRACK.ORG API,18 SPCS,26998,TIMED,PAYLOAD,U,01055B,10/27/24 13:18,476128,14.92467014,0.0002466,74.0729,356.1415,317.6619,42.4373,0,999,24156,0.0005125,0.00005223,0,4535963,0 TIMED,1 26998U 01055B   24301.55457727  .00005223  00000-0  51250-3 0  9995,2 26998  74.0729 356.1415 0002466 317.6619  42.4373 14.92467014241560,2001-055B,26998,6968.383,96.485,591.966,588.53,0
GENERATED VIA SPACETRACK.ORG API,18 SPCS,26998,TIMED,PAYLOAD,U,01055B,10/27/24 14:55,21056,14.92467426,0.0002477,74.0729,356.0072,317.5754,42.5237,0,999,24171,0.00050773,0.00005174,0,4536052,0 TIMED,1 26998U 01055B   24301.62160904  .00005174  00000-0  50773-3 0  9995,2 26998  74.0729 356.0072 0002477 317.5754  42.5237 14.92467426241713,2001-055B,26998,6968.382,96.485,591.973,588.521,0
GENERATED VIA SPACETRACK.ORG API,18 SPCS,26998,TIMED,PAYLOAD,U,01055B,10/27/24 21:21,105728,14.92471327,0.0002473,74.0729,355.4699,317.3312,42.7678,0,999,24161,0.00056176,0.0000573,0,4536275,0 TIMED,1 26998U 01055B   24301.88973502  .00005730  00000-0  56176-3 0  9990,2 26998  74.0729 355.4699 0002473 317.3312  42.7678 14.92471327241610,2001-055B,26998,6968.37,96.484,591.958,588.511,0
GENERATED VIA SPACETRACK.ORG API,18 SPCS,26998,TIMED,PAYLOAD,U,01055B,10/28/24 13:26,173984,14.9247816,0.0002532,74.073,354.1265,316.5214,43.5769,0,999,24171,0.00058362,0.00005956,0,4537039,0 TIMED,1 26998U 01055B   24302.56004831  .00005956  00000-0  58362-3 0  9995,2 26998  74.0730 354.1265 0002532 316.5214  43.5769 14.92478160241718,2001-055B,26998,6968.348,96.484,591.978,588.449,0
GENERATED VIA SPACETRACK.ORG API,18 SPCS,26998,TIMED,PAYLOAD,U,01055B,10/28/24 13:26,169664,14.92478342,0.0002528,74.073,354.1265,316.526,43.5724,0,999,24171,0.0005909,0.00006031,0,4537323,0 TIMED,1 26998U 01055B   24302.56004826  .00006031  00000-0  59090-3 0  9993,2 26998  74.0730 354.1265 0002528 316.5260  43.5724 14.92478342241717,2001-055B,26998,6968.348,96.484,591.974,588.451,0
GENERATED VIA SPACETRACK.ORG API,18 SPCS,26998,TIMED,PAYLOAD,U,01055B,10/29/24 3:55,433792,14.9248417,0.0002589,74.0729,352.9174,315.5593,44.5382,0,999,24194,0.00053155,0.00005422,0,4537373,0 TIMED,1 26998U 01055B   24303.16332678  .00005422  00000-0  53155-3 0  9998,2 26998  74.0729 352.9174 0002589 315.5593  44.5382 14.92484170241947,2001-055B,26998,6968.33,96.483,591.999,588.391,0
GENERATED VIA SPACETRACK.ORG API,18 SPCS,26998,TIMED,PAYLOAD,U,01055B,10/29/24 7:08,352576,14.92485677,0.0002594,74.0729,352.6486,315.4865,44.6109,0,999,24182,0.00052967,0.00005402,0,4538016,0 TIMED,1 26998U 01055B   24303.29738834  .00005402  00000-0  52967-3 0  9994,2 26998  74.0729 352.6486 0002594 315.4865  44.6109 14.92485677241825,2001-055B,26998,6968.325,96.483,591.998,588.382,0
GENERATED VIA SPACETRACK.ORG API,18 SPCS,26998,TIMED,PAYLOAD,U,01055B,10/29/24 13:34,140032,14.92489511,0.0002597,74.0729,352.1114,315.0971,45.0002,0,999,24186,0.00055538,0.00005667,0,4538221,0 TIMED,1 26998U 01055B   24303.56551088  .00005667  00000-0  55538-3 0  9998,2 26998  74.0729 352.1114 0002597 315.0971  45.0002 14.92489511241867,2001-055B,26998,6968.313,96.483,591.988,588.368,0
GENERATED VIA SPACETRACK.ORG API,18 SPCS,26998,TIMED,PAYLOAD,U,01055B,10/30/24 10:29,632608,14.92499456,0.000262,74.0726,350.3649,314.17,45.9267,0,999,24213,0.00053982,0.00005509,0,4538763,0 TIMED,1 26998U 01055B   24304.43690547  .00005509  00000-0  53982-3 0  9995,2 26998  74.0726 350.3649 0002620 314.1700  45.9267 14.92499456242136,2001-055B,26998,6968.282,96.482,591.973,588.321,0
GENERATED VIA SPACETRACK.ORG API,18 SPCS,26998,TIMED,PAYLOAD,U,01055B,10/30/24 13:42,437344,14.92500588,0.0002621,74.0726,350.0961,313.8867,46.2099,0,999,24201,0.00051464,0.0000525,0,4539025,0 TIMED,1 26998U 01055B   24304.57096571  .00005250  00000-0  51464-3 0  9993,2 26998  74.0726 350.0961 0002621 313.8867  46.2099 14.92500588242014,2001-055B,26998,6968.279,96.482,591.97,588.317,0
GENERATED VIA SPACETRACK.ORG API,18 SPCS,26998,TIMED,PAYLOAD,U,01055B,10/31/24 12:13,768096,14.92510063,0.0002629,74.0723,348.2149,312.5729,47.5232,0,999,24215,0.00048223,0.00004918,0,4539672,0 TIMED,1 26998U 01055B   24305.50938389  .00004918  00000-0  48223-3 0  9998,2 26998  74.0723 348.2149 0002629 312.5729  47.5232 14.92510063242156,2001-055B,26998,6968.249,96.482,591.946,588.282,0
GENERATED VIA SPACETRACK.ORG API,18 SPCS,26998,TIMED,PAYLOAD,U,01055B,10/31/24 12:13,768096,14.92510063,0.0002629,74.0723,348.2149,312.5729,47.5232,0,999,24229,0.00048223,0.00004918,0,4539817,0 TIMED,1 26998U 01055B   24305.50938389  .00004918  00000-0  48223-3 0  9998,2 26998  74.0723 348.2149 0002629 312.5729  47.5232 14.92510063242291,2001-055B,26998,6968.249,96.482,591.946,588.282,0
GENERATED VIA SPACETRACK.ORG API,18 SPCS,26998,TIMED,PAYLOAD,U,01055B,10/31/24 12:13,761184,14.92510738,0.0002595,74.0723,348.2149,312.4856,47.6108,0,999,24215,0.00051251,0.00005229,0,4540201,0 TIMED,1 26998U 01055B   24305.50938381  .00005229  00000-0  51251-3 0  9991,2 26998  74.0723 348.2149 0002595 312.4856  47.6108 14.92510738242150,2001-055B,26998,6968.247,96.482,591.92,588.304,0
GENERATED VIA SPACETRACK.ORG API,18 SPCS,26998,TIMED,PAYLOAD,U,01055B,11/1/24 12:21,855808,14.92521333,0.0002658,74.0719,346.1995,311.2892,48.8061,0,999,24244,0.00050866,0.00005191,0,4540589,0 TIMED,1 26998U 01055B   24306.51482472  .00005191  00000-0  50866-3 0  9997,2 26998  74.0719 346.1995 0002658 311.2892  48.8061 14.92521333242444,2001-055B,26998,6968.214,96.481,591.931,588.227,0
GENERATED VIA SPACETRACK.ORG API,18 SPCS,26998,TIMED,PAYLOAD,U,01055B,11/1/24 12:21,855808,14.92521333,0.0002658,74.0719,346.1995,311.2892,48.8061,0,999,24230,0.00050866,0.00005191,0,4540860,0 TIMED,1 26998U 01055B   24306.51482472  .00005191  00000-0  50866-3 0  9997,2 26998  74.0719 346.1995 0002658 311.2892  48.8061 14.92521333242309,2001-055B,26998,6968.214,96.481,591.931,588.227,0
GENERATED VIA SPACETRACK.ORG API,18 SPCS,26998,TIMED,PAYLOAD,U,01055B,11/1/24 20:23,383808,14.92526054,0.0002684,74.0718,345.5276,310.8349,49.2601,0,999,24235,0.00055925,0.00005712,0,4541060,0 TIMED,1 26998U 01055B   24306.84996972  .00005712  00000-0  55925-3 0  9998,2 26998  74.0718 345.5276 0002684 310.8349  49.2601 14.92526054242359,2001-055B,26998,6968.199,96.481,591.935,588.194,0
GENERATED VIA SPACETRACK.ORG API,18 SPCS,26998,TIMED,PAYLOAD,U,01055B,11/2/24 12:29,229856,14.92534291,0.0002767,74.0714,344.1839,309.9907,50.1033,0,999,24259,0.00057851,0.00005912,0,4541351,0 TIMED,1 26998U 01055B   24307.52025729  .00005912  00000-0  57851-3 0  9999,2 26998  74.0714 344.1839 0002767 309.9907  50.1033 14.92534291242594,2001-055B,26998,6968.174,96.48,591.967,588.111,0
GENERATED VIA SPACETRACK.ORG API,18 SPCS,26998,TIMED,PAYLOAD,U,01055B,11/2/24 12:29,229856,14.92534291,0.0002767,74.0714,344.1839,309.9907,50.1033,0,999,24245,0.00057851,0.00005912,0,4541625,0 TIMED,1 26998U 01055B   24307.52025729  .00005912  00000-0  57851-3 0  9999,2 26998  74.0714 344.1839 0002767 309.9907  50.1033 14.92534291242459,2001-055B,26998,6968.174,96.48,591.967,588.111,0
GENERATED VIA SPACETRACK.ORG API,18 SPCS,26998,TIMED,PAYLOAD,U,01055B,11/2/24 20:31,490880,14.92539591,0.0002779,74.0714,343.5121,309.3856,50.7081,0,999,24250,0.00062943,0.00006437,0,4541988,0 TIMED,1 26998U 01055B   24307.85539920  .00006437  00000-0  62943-3 0  9999,2 26998  74.0714 343.5121 0002779 309.3856  50.7081 14.92539591242509,2001-055B,26998,6968.157,96.48,591.959,588.086,0
